QIANFAN-73              
1 63159U 25046A   26021.45187153  .00000300  00000+0  44527-3 0  9993
2 63159  88.9796 315.9191 0016008  15.5600 344.6040 13.50991733 52777
QIANFAN-74              
1 63160U 25046B   26021.50941883  .00000321  00000+0  47834-3 0  9996
2 63160  88.9796 315.8020 0001866  68.6829 291.4521 13.50989032 52847
QIANFAN-75              
1 63161U 25046C   26021.49657080  .00000333  00000+0  49630-3 0  9997
2 63161  88.9797 316.0375 0017297  17.7647 342.4105 13.50992656 52710
QIANFAN-76              
1 63162U 25046D   26021.49320373  .00000325  00000+0  48500-3 0  9996
2 63162  88.9796 316.0182 0014880  19.2520 340.9190 13.50994519 52726
QIANFAN-77              
1 63163U 25046E   26021.46376375  .00000794  00000+0  56843-3 0  9996
2 63163  88.9795 313.7026 0014020 325.0932  34.9324 13.96130426 53996
QIANFAN-78              
1 63164U 25046F   26021.46005556  .00000331  00000+0  49432-3 0  9990
2 63164  88.9795 315.8852 0016309  20.8578 339.3235 13.50993460 52790
QIANFAN-79              
1 63165U 25046G   26021.48871888  .00000319  00000+0  47582-3 0  9992
2 63165  88.9799 315.9913 0015974  19.3418 340.8336 13.50990605 52749
QIANFAN-80              
1 63166U 25046H   26021.50524515  .00000331  00000+0  49342-3 0  9998
2 63166  88.9797 315.6955 0015029  23.5381 336.6455 13.50993328 52906
